ORBCOMM FM37            
1 33064U 08031E   25085.23237692  .00005947  00000+0  81743-3 0  9992
2 33064  48.4405  17.8984 0005637  14.0510 135.1106 14.79329294901762
VESSELSAT 1             
1 37840U 11058C   25085.52026162  .00000561  00000+0  16147-3 0  9994
2 37840  19.9611 234.1012 0013682 357.7823   2.2520 14.11329373694610
ORBCOMM FM109           
1 40086U 14040A   25085.61542664  .00002614  00000+0  60014-3 0  9997
2 40086  47.0032  46.2175 0002533 312.8093  47.2580 14.57974511569011
ORBCOMM FM107           
1 40087U 14040B   25085.57914654  .00002644  00000+0  60584-3 0  9990
2 40087  47.0047  47.3815 0002025 275.8567  84.2088 14.58036172569085
ORBCOMM FM106           
1 40088U 14040C   25085.54577406  .00003849  00000+0  67763-3 0  9992
2 40088  47.0586 236.2403 0016210  41.7340 318.4784 14.69149892571327
ORBCOMM FM111           
1 40089U 14040D   25085.38832102  .00007692  00000+0  89409-3 0  9993
2 40089  47.0001  98.2484 0029537 157.3922 202.8282 14.85660573577913
ORBCOMM FM104           
1 40090U 14040E   25085.34017913  .00002275  00000+0  54386-3 0  9994
2 40090  47.0034  81.1274 0016333 190.0322 170.0239 14.56465440568548
